SL-14 R/B               
1 20262U 89080C   25272.80724236  .00000344  00000+0  99844-4 0  9995
2 20262  82.5875 276.4868 1230313 192.4534 164.3398 12.50351478640045
DELTA 1 R/B             
1 20323U 89089B   25272.62160873  .00000752  00000+0  19575-3 0  9998
2 20323  97.0859 140.5725 0067599 271.7061  87.6395 14.50478673872385
ARIANE 40 R/B           
1 20443U 90005H   25272.79488977  .00000658  00000+0  22356-3 0  9993
2 20443  98.3347 333.0238 0009471 335.0057  25.0671 14.39712007869654
DELTA 2 R/B(1)          
1 20453U 90008B   25272.80792381  .00049696  00000+0  95288-3 0  9995
2 20453  35.6069 135.5941 0124238 226.6558 132.3763 15.38853828901216
COSMOS 2058             
1 20465U 90010A   25272.80678846  .00009230  00000+0  57140-3 0  9995
2 20465  82.4755 205.6981 0009791 158.2779 201.8867 15.09639994917954
SL-14 R/B               
1 20466U 90010B   25271.93962337  .00001110  00000+0  13208-3 0  9996
2 20466  82.5011  59.2747 0021241 111.4831 248.8651 14.83357028904503
SL-14 R/B               
1 20511U 90018B   25272.74715787  .00001040  00000+0  12817-3 0  9997
2 20511  82.5252  13.5112 0015008 260.8499  99.1017 14.81940711898749
HST                     
1 20580U 90037B   25271.77905519  .00012641  00000+0  46110-3 0  9992
2 20580  28.4687  62.1579 0002615 120.7705 239.3148 15.26559943748523
SL-16 R/B               
1 20625U 90046B   25271.45786490 -.00000068  00000+0 -10434-4 0  9995
2 20625  70.9977 278.6199 0014810 201.0896 158.9618 14.14983309825441
COSMOS 2084             
1 20663U 90055A   25272.79992853  .00006127  00000+0  44258-3 0  9997
2 20663  62.7909 163.8006 0044425 165.7922 194.4439 15.04296064912101
SL-6 R/B(2)             
1 20666U 90055D   25272.70813350  .00005330  00000+0  41313-3 0  9999
2 20666  62.7835  80.8563 0012215 238.3997 121.5910 15.02508281913997
SL-8 R/B                
1 20775U 90078B   25272.82997194  .00046975  00000+0  15071-2 0  9998
2 20775  82.9084  35.2279 0389027 192.4218 166.7202 14.81745958785419
SL-8 R/B                
1 21088U 91006B   25272.59903132  .00000027  00000+0  11487-4 0  9998
2 21088  82.9385 289.8816 0023674 124.5407 350.6421 13.77470830741893
OKEAN-3                 
1 21397U 91039A   25272.68731252  .00006703  00000+0  49008-3 0  9995
2 21397  82.5162 132.6875 0014894 152.6660 207.5353 15.03389560840830
COSMOS 2151             
1 21422U 91042A   25272.88490858  .00004245  00000+0  34577-3 0  9998
2 21422  82.4956 238.6409 0010846 238.0804 121.9365 14.99242224839098
SL-14 R/B               
1 21423U 91042B   25272.69932346  .00000958  00000+0  11860-3 0  9998
2 21423  82.4968  11.1436 0018250  53.3672 306.9217 14.81639398829233
ERS-1                   
1 21574U 91050A   25272.63175830  .00000723  00000+0  24678-3 0  9996
2 21574  98.7944 281.8123 0031335 321.6928  38.2033 14.39276719792560
ARIANE 40 R/B           
1 21610U 91050F   25272.71882409  .00000755  00000+0  23941-3 0  9990
2 21610  98.2279 325.7786 0003007 179.7753 180.3439 14.42718009795786
INTERCOSMOS 25          
1 21819U 91086A   25272.73496168  .00003931  00000+0  76695-3 0  9998
2 21819  82.6056  47.2761 1489343 103.7967 273.2828 12.11424270477196
SL-8 R/B                
1 21876U 92008B   25272.80935186  .00000120  00000+0  10802-3 0  9997
2 21876  82.9302  27.4181 0033902 222.3911 256.3995 13.75940555687295
SL-8 R/B                
1 21938U 92020B   25271.99009649  .00000007  00000+0 -85643-5 0  9997
2 21938  82.9253 273.8399 0029765  31.6335  26.0649 13.75518366678907
USA 81                  
1 21949U 92023A   25271.93374985  .00000436  00000+0  15420-3 0  9993
2 21949  85.0083 224.7043 0001920 111.7624 248.3773 14.32281831 71631
COSMOS 2219             
1 22219U 92076A   25272.58946806 -.00000172  00000+0 -65412-4 0  9997
2 22219  71.0634 354.8353 0015444  84.9799 275.3086 14.14048034695600
SL-16 R/B               
1 22220U 92076B   25272.09989146 -.00000099  00000+0 -25476-4 0  9993
2 22220  71.0011 168.7544 0013854 332.0970 130.0450 14.16823346698947
COSMOS 2221             
1 22236U 92080A   25271.88147867  .00004274  00000+0  38520-3 0  9997
2 22236  82.5022  73.9377 0014990  21.4303 338.7543 14.95274663756602
SL-16 R/B               
1 22285U 92093B   25272.60970356  .00000009  00000+0  29103-4 0  9993
2 22285  71.0236 342.4103 0005324 218.1932 141.8815 14.15410311690360
COSMOS 2228             
1 22286U 92094A   25272.73747764  .00006727  00000+0  59224-3 0  9993
2 22286  82.5202  31.2998 0019453 121.8243 238.4876 14.96204454751983
SL-16 R/B               
1 22566U 93016B   25272.84610497 -.00000157  00000+0 -56110-4 0  9998
2 22566  71.0081 192.9936 0011617 218.7371 141.2919 14.15269306679415
COSMOS 2242             
1 22626U 93024A   25272.78678661  .00005166  00000+0  46160-3 0  9990
2 22626  82.5180  60.4870 0017769 124.2313 236.0595 14.95609089756330
SL-16 R/B               
1 22803U 93059B   25272.62047791  .00000276  00000+0  16040-3 0  9993
2 22803  70.9930 350.7839 0014826  96.4215 263.8598 14.17193151656717
ARIANE 40 R/B           
1 22830U 93061H   25272.10407055  .00000492  00000+0  19653-3 0  9995
2 22830  98.5165 338.9593 0011445  47.4397 312.7751 14.32721568670963
COSMOS 2278             
1 23087U 94023A   25272.83975505  .00000414  00000+0  24125-3 0  9993
2 23087  71.0541 151.6163 0010898 273.7106  86.2770 14.14326545622066
SL-16 R/B               
1 23088U 94023B   25272.81868214 -.00000087  00000+0 -20323-4 0  9995
2 23088  71.0012  48.7205 0004100 219.9855 140.0966 14.14984390623330
SL-16 R/B               
1 23343U 94074B   25272.61433730  .00001035  00000+0  14627-3 0  9995
2 23343  97.7307 304.8230 0007383  36.6420  77.4810 14.79159627663432
SL-16 R/B               
1 23405U 94077B   25272.58039219 -.00000042  00000+0  31222-5 0  9997
2 23405  70.9841 331.4279 0001746 347.4471  12.6608 14.15530950593432
ARIANE 40+ R/B          
1 23561U 95021B   25272.72699301  .00000668  00000+0  22791-3 0  9992
2 23561  98.4735 341.1795 0005658 262.3567 207.3197 14.39607594596085
SL-16 R/B               
1 23705U 95058B   25272.79140880  .00000372  00000+0  21479-3 0  9996
2 23705  71.0219 158.0548 0012587 355.0997   5.0001 14.15465128545086
SL-16 R/B               
1 24298U 96051B   25272.69184242 -.00000050  00000+0 -58117-6 0  9994
2 24298  70.7613 156.0101 0014929   1.5171 358.5991 14.12393540498918
ORBVIEW 2 (SEASTAR)     
1 24883U 97037A   25272.04899250  .00000656  00000+0  24520-3 0  9998
2 24883  98.8410  67.2698 0002520 153.6461 206.4852 14.35327392485283
SL-16 R/B               
1 25400U 98043G   25272.77403066  .00000214  00000+0  10846-3 0  9994
2 25400  98.7978 220.2302 0010791 118.1102 242.1169 14.25996661416054
SL-16 R/B               
1 25407U 98045B   25272.10424449  .00000100  00000+0  74584-4 0  9992
2 25407  71.0114 161.3792 0009785 271.6100  88.3902 14.16154620404221
ISS (ZARYA)             
1 25544U 98067A   25272.82296167  .00017460  00000+0  31852-3 0  9998
2 25544  51.6320 148.4464 0001020 175.1481 184.9518 15.49520728531390
CZ-4B R/B               
1 25732U 99025C   25272.61128640  .00000207  00000+0  12055-3 0  9994
2 25732  98.6887 315.5021 0038207  88.2712  25.3915 14.18216165365332
OKEAN-O                 
1 25860U 99039A   25272.76150981  .00001578  00000+0  21572-3 0  9996
2 25860  97.9714 329.0647 0001784 104.4725 255.6685 14.79971170410585
SL-16 R/B               
1 25861U 99039B   25272.76094123  .00001339  00000+0  17770-3 0  9992
2 25861  98.0238 326.8657 0016059  62.2489 298.0350 14.81424762413030
DELTA 2 R/B             
1 25876U 99041E   25272.77880193  .00001373  00000+0  25938-3 0  9995
2 25876  51.7642 223.5933 0504902 233.6729 121.6584 14.11156882340308
HELIOS 1B               
1 25977U 99064A   25272.65229317  .00004388  00000+0  49843-3 0  9994
2 25977  98.1780 165.1383 0000934 131.2324 228.8971 14.86826766661323
TERRA                   
1 25994U 99068A   25272.84224823  .00000993  00000+0  21247-3 0  9991
2 25994  97.9865 327.1928 0001974   9.9044 111.8421 14.60821530371597
SL-16 R/B               
1 26070U 00006B   25272.78438926  .00000347  00000+0  20049-3 0  9997
2 26070  71.0011  76.1548 0014594  62.9701 297.2910 14.15789093325788
TITAN 4B R/B            
1 26474U 00047B   25272.67364352  .00006658  00000+0  43054-3 0  9991
2 26474  67.9890 132.7381 0046574 226.3933 133.3347 15.07896067368621
ENVISAT                 
1 27386U 02009A   25272.84477257  .00000339  00000+0  12379-3 0  9998
2 27386  98.3460 225.5101 0001269  90.6309 294.2875 14.38956413236045
IDEFIX & ARIANE 42P R/B 
1 27422U 02021B   25271.76279039  .00000704  00000+0  28487-3 0  9994
2 27422  98.5657 207.4775 0011021 308.7190  51.3007 14.30864024220860
AQUA                    
1 27424U 02022A   25272.88763721  .00002496  00000+0  51274-3 0  9997
2 27424  98.3904 232.6285 0002069  78.9206 304.2223 14.61532304245243
CZ-4B R/B               
1 27432U 02024C   25272.66849486  .00000129  00000+0  89435-4 0  9999
2 27432  98.9118 321.6530 0051077 119.7120   0.8102 14.14505795206478
MIDORI II (ADEOS-II)    
1 27597U 02056A   25272.71426133  .00000690  00000+0  28987-3 0  9999
2 27597  98.7493 225.3347 0002071  94.6503 265.4915 14.29125085187303
H-2A R/B                
1 27601U 02056E   25272.77014795  .00000776  00000+0  28775-3 0  9998
2 27601  98.2928 234.5209 0069232 281.5423 140.9487 14.33594370191056
CZ-4B R/B               
1 28059U 03049C   25272.52443095  .00001182  00000+0  28315-3 0  9993
2 28059  98.6717 256.3076 0048519   5.0116 355.1556 14.54791294163166
CZ-2C R/B               
1 28222U 04012C   25272.80081226  .00056245  00000+0  10188-2 0  9999
2 28222  97.7546 319.6384 0021203 175.1965 184.9492 15.49208220179256
SL-16 R/B               
1 28353U 04021B   25271.94785275  .00000426  00000+0  24670-3 0  9995
2 28353  71.0005 211.9116 0007172 280.1400  79.8913 14.14564905 99968
